HAIYANG-2A              
1 37781U 11043A   22085.05649500 -.00000005  00000+0  38169-4 0  9997
2 37781  99.3193  92.3551 0001633  83.0529 277.0809 13.78732595534147
NIGERIASAT-2            
1 37789U 11044B   22085.12032306  .00000061  00000+0  20838-4 0  9999
2 37789  97.8164 112.2414 0009608 306.9716  53.0612 14.62214252565700
NIGERIASAT-X            
1 37790U 11044C   22084.57534447  .00000153  00000+0  42150-4 0  9995
2 37790  97.9044 130.9628 0013049 149.7536 210.4420 14.58693582564843
RASAT                   
1 37791U 11044D   22085.11278455  .00000206  00000+0  47307-4 0  9999
2 37791  98.0933 179.4154 0022727  35.8852 324.3874 14.64935950566917
APRIZESAT 5             
1 37792U 11044E   22085.17077729  .00000413  00000+0  67343-4 0  9999
2 37792  98.3388 318.0927 0056616 269.7075  89.7645 14.75641680570855
APRIZESAT 6             
1 37793U 11044F   22084.81161177  .00000317  00000+0  57756-4 0  9991
2 37793  98.4114 294.0133 0045952 321.0832 100.0574 14.72679823569707
CHINASAT 1A (ZX 1A)     
1 37804U 11047A   22085.08330404 -.00000353  00000+0  00000+0 0  9994
2 37804   0.0492 330.2131 0001925  36.4083 336.7130  1.00269960 38583
SES-2                   
1 37809U 11049A   22085.16449757 -.00000211  00000+0  00000+0 0  9995
2 37809   0.0133 107.3864 0002823 262.2434 146.1584  1.00271636 38515
ARABSAT-5C              
1 37810U 11049B   22084.38313409  .00000110  00000+0  00000+0 0  9991
2 37810   0.0581 359.1909 0000634 134.5513 206.9819  1.00270145 38563
EUTELSAT 7 WEST A       
1 37816U 11051A   22084.40327039 -.00000073  00000+0  00000+0 0  9996
2 37816   0.0624   8.5725 0001897 158.5553 153.5993  1.00270414 38402
TACSAT 4                
1 37818U 11052A   22084.48408334  .00000268  00000+0  18380-3 0  9994
2 37818  62.9916  77.9985 4669217 237.3127 336.2199  6.02784475230851
QUETZSAT 1              
1 37826U 11054A   22085.16928619 -.00000257  00000+0  00000+0 0  9999
2 37826   0.0061 160.7401 0002516 216.6363 150.1392  1.00269809 38619
INTELSAT 18 (IS-18)     
1 37834U 11056A   22085.15847056  .00000037  00000+0  00000+0 0  9999
2 37834   0.0408  21.7702 0001843 349.7910  49.0538  1.00270960 38361
EUTELSAT 16A            
1 37836U 11057A   22084.80049244  .00000089  00000+0  00000+0 0  9993
2 37836   0.0688   2.5275 0004956   3.5690 121.3047  1.00269908 38306
MEGHA-TROPIQUES         
1 37838U 11058A   22085.11946456  .00000369  00000+0  59515-4 0  9993
2 37838  19.9781  70.0746 0010593  84.9059 275.2554 14.09617561539336
JUGNU                   
1 37839U 11058B   22085.00976684  .00000399  00000+0  70346-4 0  9996
2 37839  19.9621 321.5838 0018813 316.6768 178.2253 14.12759100540432
SRMSAT                  
1 37841U 11058D   22085.16402524  .00000369  00000+0  57833-4 0  9996
2 37841  19.9732  38.3613 0012034 148.3940 327.5836 14.10733363539685
VIASAT-1                
1 37843U 11059A   22085.21270597 -.00000039  00000+0  00000+0 0  9992
2 37843   0.0136 187.4377 0002474 189.3043 128.3307  1.00270522 38799
GSAT0101 (GALILEO-PFM)  
1 37846U 11060A   22083.19642935 -.00000079  00000+0  00000+0 0  9995
2 37846  56.9665  23.6540 0004154 356.8620   3.1255  1.70474880 64893
GSAT0102 (GALILEO-FM2)  
1 37847U 11060B   22084.58294983 -.00000086  00000+0  00000+0 0  9994
2 37847  56.9678  23.6159 0005194 334.4697 203.0104  1.70475205 64914
SUOMI NPP               
1 37849U 11061A   22085.09051069  .00000066  00000+0  52136-4 0  9999
2 37849  98.7260  24.8265 0000959  95.5612 283.5609 14.19551297539366
M-CUBED & EXP-1 PRIME   
1 37855U 11061F   22085.14713188  .00006362  00000+0  29506-3 0  9998
2 37855 101.7062 160.4146 0159440 311.4951  47.2669 15.10155449569128
COSMOS 2476 [GLONASS-M] 
1 37867U 11064A   22084.40145991  .00000038  00000+0  00000+0 0  9991
2 37867  64.6208 125.2641 0022767 239.2068 300.4443  2.13101905 80899
COSMOS 2477 [GLONASS-M] 
1 37868U 11064B   22084.64110089  .00000039  00000+0  00000+0 0  9999
2 37868  64.6286 125.3195 0020086 240.4905 301.1640  2.13101725 80850
COSMOS 2475 [GLONASS-M] 
1 37869U 11064C   22084.58768104  .00000039  00000+0  00000+0 0  9990
2 37869  64.6358 125.3286 0024456 257.4173 201.1857  2.13101917 80865
YAOGAN 12               
1 37875U 11066B   22084.85725918 -.00009154  00000+0 -38123-3 0  9995
2 37875  97.3200 158.8435 0010815  23.7680  87.7495 15.23468865577421
CHUANGXIN 1-03 (CX-1-03)
1 37930U 11068A   22085.11315523  .00000014  00000+0  22800-4 0  9996
2 37930  98.6883  80.4348 0014433 324.4113  35.6108 14.29837330542336
SHIYAN 4 (SY-4)         
1 37931U 11068B   22085.11991782  .00000083  00000+0  49540-4 0  9990
2 37931  98.6924  80.8774 0023339 354.8795   5.2148 14.29921985540018
ASIASAT 7               
1 37933U 11069A   22084.78476647 -.00000348  00000+0  00000+0 0  9991
2 37933   0.0078 177.8287 0001705 157.5847 235.8158  1.00271046 37971
YAOGAN 13               
1 37941U 11072A   22085.11990741  .00003897  00000+0  18343-3 0  9992
2 37941  97.6237  34.2336 0001973  29.0462 157.8426 15.20151949572132
BEIDOU 10               
1 37948U 11073A   22084.46329071 -.00000127  00000+0  00000+0 0  9990
2 37948  50.4755 290.2811 0077056 217.7215 297.5613  1.00271959 37919
LUCH 5A                 
1 37951U 11074B   22084.79697701 -.00000060  00000+0  00000+0 0  9995
2 37951   4.8064  99.3108 0003811 287.7518 250.0300  1.00270695 37707
SSOT                    
1 38011U 11076E   22085.19801937  .00000577  00000+0  79123-4 0  9997
2 38011  97.8000 159.6573 0001405  85.0413 275.0965 14.82055829555706
PLEIADES 1A             
1 38012U 11076F   22085.09779128  .00000108  00000+0  33100-4 0  9998
2 38012  98.1689 161.2189 0001112  87.8671 272.2660 14.58562622546929
NIGCOMSAT 1R            
1 38014U 11077A   22085.13099684  .00000129  00000+0  00000+0 0  9999
2 38014   0.0544  75.1759 0003484 326.2614 231.7337  1.00272725 37549
ZIYUAN 1-02C (ZY 1-02C) 
1 38038U 11079A   22085.12811896  .00000131  00000+0  61205-4 0  9995
2 38038  98.5979 150.0914 0007853 144.3563 215.8164 14.35340771537535
GLOBALSTAR M084         
1 38040U 11080A   22085.18928729 -.00000102  00000+0  95415-5 0  9990
2 38040  52.0027  37.7774 0000414  57.0823  46.1590 12.62264742474053
GLOBALSTAR M080         
1 38041U 11080B   22085.16323281 -.00000109  00000+0 -28176-4 0  9998
2 38041  52.0078  39.0505 0000322  46.5062  57.2104 12.62266722474035
GLOBALSTAR M082         
1 38042U 11080C   22084.47847683 -.00000083  00000+0  11358-3 0  9992
2 38042  52.0105 356.4591 0001030  95.5928  75.2685 12.62263145474513
GLOBALSTAR M092         
1 38043U 11080D   22084.76842628 -.00000112  00000+0 -47578-4 0  9997
2 38043  52.0080  85.8842 0000450  46.9114 123.1543 12.62271222473217
GLOBALSTAR M090         
1 38044U 11080E   22085.13383556 -.00000089  00000+0  79991-4 0  9996
2 38044  51.9911 349.7912 0000662  99.5987  52.1729 12.62266593474758
GLOBALSTAR M086         
1 38045U 11080F   22084.45171841 -.00000088  00000+0  86581-4 0  9995
2 38045  51.9925 352.3277 0000762 216.5903 314.0798 12.62265238474579
ZIYUAN 3-1 (ZY 3-1)     
1 38046U 12001A   22085.09880887  .00003340  00000+0  15197-3 0  9995
2 38046  97.3470 158.0595 0003501  82.3512   8.4433 15.21389105566932
FENGYUN 2F              
1 38049U 12002A   22084.54552681 -.00000369  00000+0  00000+0 0  9998
2 38049   3.5876  80.2923 0005083   5.8881  45.3467  1.00268631 37393
WGS F4 (USA 233)        
1 38070U 12003A   22084.70959059 -.00000229  00000+0  00000+0 0  9996
2 38070   0.0150 175.3954 0000757 289.2692  62.3243  1.00270894 37233
LARES                   
1 38077U 12006A   22084.34258632 -.00000070  00000+0 -19209-3 0  9995
2 38077  69.4917  50.9695 0006500  53.7739 306.3882 12.54930883463356
SES-4                   
1 38087U 12007A   22084.46369084 -.00000181  00000+0  00000+0 0  9991
2 38087   0.0191 263.8691 0002394 112.3857 311.5536  1.00272002 36747
BEIDOU 11               
1 38091U 12008A   22084.57757612  .00000042  00000+0  00000+0 0  9992
2 38091   1.3774  64.8683 0014366 318.2025  66.6599  1.00278888 36991
MUOS-1                  
1 38093U 12009A   22084.53915786 -.00000138  00000+0  00000+0 0  9996
2 38093   2.8440  29.7447 0058805 358.1065 249.2023  1.00273267 36953
INTELSAT 22 (IS-22)     
1 38098U 12011A   22084.57202205 -.00000072  00000+0  00000+0 0  9990
2 38098   0.0022 184.1091 0002801 185.0294  91.8875  1.00271375 36337
APSTAR 7                
1 38107U 12013A   22084.55952278 -.00000115  00000+0  00000+0 0  9991
2 38107   0.0167 166.8717 0001861 229.1381  64.8948  1.00271382 36320
YAHSAT 1B               
1 38245U 12016A   22084.84500856  .00000112  00000+0  00000+0 0  9996
2 38245   0.0171 133.8965 0001700 260.7336 140.4304  1.00272828 36435
BEIDOU 12               
1 38250U 12018A   22085.17331424 -.00000102  00000+0  00000+0 0  9994
2 38250  56.7152 356.3111 0022213 257.8961 277.0373  1.86234512 67536
BEIDOU 13               
1 38251U 12018B   22085.24099043 -.00000102  00000+0  00000+0 0  9991
2 38251  56.6334 355.6387 0013244 265.0754 359.4853  1.86234335 67531
AEHF-2 (USA 235)        
1 38254U 12019A   22084.60144007 -.00000172  00000+0  00000+0 0  9992
2 38254   3.1719  60.1108 0003674 297.1393 308.1073  1.00271195 36181
TIANHUI 1-02            
1 38256U 12020A   22085.14174514  .00003976  00000+0  16436-3 0  9990
2 38256  97.4875 215.3177 0015405 216.9714 316.3129 15.24470929549722
YAOGAN 14               
1 38257U 12021A   22085.14717911  .00004349  00000+0  18540-3 0  9999
2 38257  97.5286 226.8142 0002019 129.7878  43.1607 15.23475984550855
JCSAT-13                
1 38331U 12023A   22084.82045351 -.00000370  00000+0  00000+0 0  9999
2 38331   0.0157 196.8392 0002468 184.8231 220.9259  1.00273565 36083
VINASAT-2               
1 38332U 12023B   22084.78999956 -.00000343  00000+0  00000+0 0  9994
2 38332   0.0156 156.7688 0002405 232.7876 209.9076  1.00270240 36121
